STARLINK-36221          
1 67215U 25304Z   26015.58335648  .00046743  00000+0  10651-2 0  9999
2 67215  70.0006 312.9611 0002979 277.1264 118.7980 15.42689298  5907
STARLINK-36212          
1 67216U 25304AA  26015.58335648  .00064494  00000+0  14663-2 0  9990
2 67216  70.0005 312.9335 0003029 266.3131 152.6472 15.42662435  5907
STARLINK-36216          
1 67217U 25304AB  26015.58335648 -.03869773  00000+0 -90596-1 0  9997
2 67217  70.0004 312.9107 0003841 276.6572 162.0798 15.45990571  5903
STARLINK-36211          
1 67218U 25304AC  26015.58335648 -.01955664  00000+0 -42124-1 0  9995
2 67218  70.0013 312.8882 0003784 272.8033 181.3263 15.47653057  5873
DISKSAT C               
1 67219U 25305A   26015.44777379  .00006673  00000+0  46136-3 0  9996
2 67219  45.0014 172.3937 0001775  32.1474 327.9509 15.06412813  4262
DISKSAT B               
1 67220U 25305B   26014.78557857  .00005298  00000+0  37045-3 0  9992
2 67220  45.0013 175.9037 0001536  33.0449 327.0521 15.06332316  4163
DISKSAT D               
1 67221U 25305C   26015.44957338  .00006014  00000+0  41853-3 0  9994
2 67221  45.0014 172.4060 0001829  47.9747 312.1284 15.06308907  4264
DISKSAT A               
1 67222U 25305D   26015.45077468  .00007024  00000+0  48649-3 0  9995
2 67222  45.0018 172.4146 0001780  58.7487 301.3562 15.06275711  4255
ELECTRON KICK STAGE R/B 
1 67223U 25305E   26015.40593945  .00086759  10493-4  74323-3 0  9996
2 67223  44.9839 161.9975 0161903 303.2685  55.2785 15.54022427  4383
TJS-23                  
1 67226U 25306A   26015.02369864  .00000044  00000+0  00000+0 0  9997
2 67226   5.9360 298.2773 0000583  63.2448 296.9762  1.00270228   350
CZ-5 R/B                
1 67227U 25306B   26014.14624916  .00006763  00000+0  18958-2 0  9990
2 67227  16.2725 290.8683 7577903 194.1146 117.2677  1.92528837   498
QPS-SAR-15              
1 67228U 25307A   26015.31454768  .00003054  00000+0  27371-3 0  9998
2 67228  42.0083 346.4672 0007704  71.7855 288.3808 14.97370393  3755
