CCSDS_OMM_VERS = 2.0
CREATION_DATE  = 
ORIGINATOR     = 

OBJECT_NAME    = STARLINK-36221
OBJECT_ID      = 2025-304Z
CENTER_NAME    = EARTH
REF_FRAME      = TEME
TIME_SYSTEM    = UTC
MEAN_ELEMENT_THEORY = SGP/SGP4

EPOCH          = 2026-01-15T14:00:01.999872
MEAN_MOTION    = 15.42689298
ECCENTRICITY   = .00029798
INCLINATION    = 70.0006
RA_OF_ASC_NODE = 312.9611
ARG_OF_PERICENTER = 277.1264
MEAN_ANOMALY   = 118.7980

EPHEMERIS_TYPE = 0
CLASSIFICATION_TYPE = U
NORAD_CAT_ID   = 67215
ELEMENT_SET_NO = 999
REV_AT_EPOCH   = 590
BSTAR          = .10651425E-2
MEAN_MOTION_DOT = .46743E-3
MEAN_MOTION_DDOT = 0

CCSDS_OMM_VERS = 2.0
CREATION_DATE  = 
ORIGINATOR     = 

OBJECT_NAME    = STARLINK-36212
OBJECT_ID      = 2025-304AA
CENTER_NAME    = EARTH
REF_FRAME      = TEME
TIME_SYSTEM    = UTC
MEAN_ELEMENT_THEORY = SGP/SGP4

EPOCH          = 2026-01-15T14:00:01.999872
MEAN_MOTION    = 15.42662435
ECCENTRICITY   = .00030299
INCLINATION    = 70.0005
RA_OF_ASC_NODE = 312.9335
ARG_OF_PERICENTER = 266.3131
MEAN_ANOMALY   = 152.6472

EPHEMERIS_TYPE = 0
CLASSIFICATION_TYPE = U
NORAD_CAT_ID   = 67216
ELEMENT_SET_NO = 999
REV_AT_EPOCH   = 590
BSTAR          = .14663092E-2
MEAN_MOTION_DOT = .64494E-3
MEAN_MOTION_DDOT = 0

CCSDS_OMM_VERS = 2.0
CREATION_DATE  = 
ORIGINATOR     = 

OBJECT_NAME    = STARLINK-36216
OBJECT_ID      = 2025-304AB
CENTER_NAME    = EARTH
REF_FRAME      = TEME
TIME_SYSTEM    = UTC
MEAN_ELEMENT_THEORY = SGP/SGP4

EPOCH          = 2026-01-15T14:00:01.999872
MEAN_MOTION    = 15.45990571
ECCENTRICITY   = .00038412
INCLINATION    = 70.0004
RA_OF_ASC_NODE = 312.9107
ARG_OF_PERICENTER = 276.6572
MEAN_ANOMALY   = 162.0798

EPHEMERIS_TYPE = 0
CLASSIFICATION_TYPE = U
NORAD_CAT_ID   = 67217
ELEMENT_SET_NO = 999
REV_AT_EPOCH   = 590
BSTAR          = -.90595943E-1
MEAN_MOTION_DOT = -.3869773E-1
MEAN_MOTION_DDOT = 0

CCSDS_OMM_VERS = 2.0
CREATION_DATE  = 
ORIGINATOR     = 

OBJECT_NAME    = STARLINK-36211
OBJECT_ID      = 2025-304AC
CENTER_NAME    = EARTH
REF_FRAME      = TEME
TIME_SYSTEM    = UTC
MEAN_ELEMENT_THEORY = SGP/SGP4

EPOCH          = 2026-01-15T14:00:01.999872
MEAN_MOTION    = 15.47653057
ECCENTRICITY   = .00037849
INCLINATION    = 70.0013
RA_OF_ASC_NODE = 312.8882
ARG_OF_PERICENTER = 272.8033
MEAN_ANOMALY   = 181.3263

EPHEMERIS_TYPE = 0
CLASSIFICATION_TYPE = U
NORAD_CAT_ID   = 67218
ELEMENT_SET_NO = 999
REV_AT_EPOCH   = 587
BSTAR          = -.42123538E-1
MEAN_MOTION_DOT = -.1955664E-1
MEAN_MOTION_DDOT = 0

CCSDS_OMM_VERS = 2.0
CREATION_DATE  = 
ORIGINATOR     = 

OBJECT_NAME    = DISKSAT C
OBJECT_ID      = 2025-305A
CENTER_NAME    = EARTH
REF_FRAME      = TEME
TIME_SYSTEM    = UTC
MEAN_ELEMENT_THEORY = SGP/SGP4

EPOCH          = 2026-01-15T10:44:47.655456
MEAN_MOTION    = 15.06412813
ECCENTRICITY   = .00017751
INCLINATION    = 45.0014
RA_OF_ASC_NODE = 172.3937
ARG_OF_PERICENTER = 32.1474
MEAN_ANOMALY   = 327.9509

EPHEMERIS_TYPE = 0
CLASSIFICATION_TYPE = U
NORAD_CAT_ID   = 67219
ELEMENT_SET_NO = 999
REV_AT_EPOCH   = 426
BSTAR          = .4613559E-3
MEAN_MOTION_DOT = .6673E-4
MEAN_MOTION_DDOT = 0

CCSDS_OMM_VERS = 2.0
CREATION_DATE  = 
ORIGINATOR     = 

OBJECT_NAME    = DISKSAT B
OBJECT_ID      = 2025-305B
CENTER_NAME    = EARTH
REF_FRAME      = TEME
TIME_SYSTEM    = UTC
MEAN_ELEMENT_THEORY = SGP/SGP4

EPOCH          = 2026-01-14T18:51:13.988448
MEAN_MOTION    = 15.06332316
ECCENTRICITY   = .0001536
INCLINATION    = 45.0013
RA_OF_ASC_NODE = 175.9037
ARG_OF_PERICENTER = 33.0449
MEAN_ANOMALY   = 327.0521

EPHEMERIS_TYPE = 0
CLASSIFICATION_TYPE = U
NORAD_CAT_ID   = 67220
ELEMENT_SET_NO = 999
REV_AT_EPOCH   = 416
BSTAR          = .37045E-3
MEAN_MOTION_DOT = .5298E-4
MEAN_MOTION_DDOT = 0

CCSDS_OMM_VERS = 2.0
CREATION_DATE  = 
ORIGINATOR     = 

OBJECT_NAME    = DISKSAT D
OBJECT_ID      = 2025-305C
CENTER_NAME    = EARTH
REF_FRAME      = TEME
TIME_SYSTEM    = UTC
MEAN_ELEMENT_THEORY = SGP/SGP4

EPOCH          = 2026-01-15T10:47:23.140032
MEAN_MOTION    = 15.06308907
ECCENTRICITY   = .00018296
INCLINATION    = 45.0014
RA_OF_ASC_NODE = 172.4060
ARG_OF_PERICENTER = 47.9747
MEAN_ANOMALY   = 312.1284

EPHEMERIS_TYPE = 0
CLASSIFICATION_TYPE = U
NORAD_CAT_ID   = 67221
ELEMENT_SET_NO = 999
REV_AT_EPOCH   = 426
BSTAR          = .41852926E-3
MEAN_MOTION_DOT = .6014E-4
MEAN_MOTION_DDOT = 0

CCSDS_OMM_VERS = 2.0
CREATION_DATE  = 
ORIGINATOR     = 

OBJECT_NAME    = DISKSAT A
OBJECT_ID      = 2025-305D
CENTER_NAME    = EARTH
REF_FRAME      = TEME
TIME_SYSTEM    = UTC
MEAN_ELEMENT_THEORY = SGP/SGP4

EPOCH          = 2026-01-15T10:49:06.932352
MEAN_MOTION    = 15.06275711
ECCENTRICITY   = .00017807
INCLINATION    = 45.0018
RA_OF_ASC_NODE = 172.4146
ARG_OF_PERICENTER = 58.7487
MEAN_ANOMALY   = 301.3562

EPHEMERIS_TYPE = 0
CLASSIFICATION_TYPE = U
NORAD_CAT_ID   = 67222
ELEMENT_SET_NO = 999
REV_AT_EPOCH   = 425
BSTAR          = .48649336E-3
MEAN_MOTION_DOT = .7024E-4
MEAN_MOTION_DDOT = 0

CCSDS_OMM_VERS = 2.0
CREATION_DATE  = 
ORIGINATOR     = 

OBJECT_NAME    = ELECTRON KICK STAGE R/B
OBJECT_ID      = 2025-305E
CENTER_NAME    = EARTH
REF_FRAME      = TEME
TIME_SYSTEM    = UTC
MEAN_ELEMENT_THEORY = SGP/SGP4

EPOCH          = 2026-01-15T09:44:33.168480
MEAN_MOTION    = 15.54022427
ECCENTRICITY   = .01619038
INCLINATION    = 44.9839
RA_OF_ASC_NODE = 161.9975
ARG_OF_PERICENTER = 303.2685
MEAN_ANOMALY   = 55.2785

EPHEMERIS_TYPE = 0
CLASSIFICATION_TYPE = U
NORAD_CAT_ID   = 67223
ELEMENT_SET_NO = 999
REV_AT_EPOCH   = 438
BSTAR          = .74322859E-3
MEAN_MOTION_DOT = .86759E-3
MEAN_MOTION_DDOT = .10492885E-4

CCSDS_OMM_VERS = 2.0
CREATION_DATE  = 
ORIGINATOR     = 

OBJECT_NAME    = TJS-23
OBJECT_ID      = 2025-306A
CENTER_NAME    = EARTH
REF_FRAME      = TEME
TIME_SYSTEM    = UTC
MEAN_ELEMENT_THEORY = SGP/SGP4

EPOCH          = 2026-01-15T00:34:07.562496
MEAN_MOTION    = 1.00270228
ECCENTRICITY   = .00005831
INCLINATION    = 5.9360
RA_OF_ASC_NODE = 298.2773
ARG_OF_PERICENTER = 63.2448
MEAN_ANOMALY   = 296.9762

EPHEMERIS_TYPE = 0
CLASSIFICATION_TYPE = U
NORAD_CAT_ID   = 67226
ELEMENT_SET_NO = 999
REV_AT_EPOCH   = 35
BSTAR          = 0
MEAN_MOTION_DOT = .44E-6
MEAN_MOTION_DDOT = 0

CCSDS_OMM_VERS = 2.0
CREATION_DATE  = 
ORIGINATOR     = 

OBJECT_NAME    = CZ-5 R/B
OBJECT_ID      = 2025-306B
CENTER_NAME    = EARTH
REF_FRAME      = TEME
TIME_SYSTEM    = UTC
MEAN_ELEMENT_THEORY = SGP/SGP4

EPOCH          = 2026-01-14T03:30:35.927424
MEAN_MOTION    = 1.92528837
ECCENTRICITY   = .75779031
INCLINATION    = 16.2725
RA_OF_ASC_NODE = 290.8683
ARG_OF_PERICENTER = 194.1146
MEAN_ANOMALY   = 117.2677

EPHEMERIS_TYPE = 0
CLASSIFICATION_TYPE = U
NORAD_CAT_ID   = 67227
ELEMENT_SET_NO = 999
REV_AT_EPOCH   = 49
BSTAR          = .18958467E-2
MEAN_MOTION_DOT = .6763E-4
MEAN_MOTION_DDOT = 0

CCSDS_OMM_VERS = 2.0
CREATION_DATE  = 
ORIGINATOR     = 

OBJECT_NAME    = QPS-SAR-15
OBJECT_ID      = 2025-307A
CENTER_NAME    = EARTH
REF_FRAME      = TEME
TIME_SYSTEM    = UTC
MEAN_ELEMENT_THEORY = SGP/SGP4

EPOCH          = 2026-01-15T07:32:56.919552
MEAN_MOTION    = 14.97370393
ECCENTRICITY   = .00077048
INCLINATION    = 42.0083
RA_OF_ASC_NODE = 346.4672
ARG_OF_PERICENTER = 71.7855
MEAN_ANOMALY   = 288.3808

EPHEMERIS_TYPE = 0
CLASSIFICATION_TYPE = U
NORAD_CAT_ID   = 67228
ELEMENT_SET_NO = 999
REV_AT_EPOCH   = 375
BSTAR          = .27371344E-3
MEAN_MOTION_DOT = .3054E-4
MEAN_MOTION_DDOT = 0

